38040,GLOBALSTAR M084,2011,114.08,700.0,+,52.0,Active,1,LEO,Kazakhstan,Globalstar,Commercial,Communications,Soyuz,1 38040U 11080A   23360.08475292 -.00000062  00000+0  23436-3 0  9995,2 38040  52.0001 249.7005 0000745  52.1364  94.4125 12.62269656554867,12.62269656,7.45e-05,LEO
38041,GLOBALSTAR M080,2011,114.08,700.0,+,52.01,Active,1,LEO,Kazakhstan,Globalstar,Commercial,Communications,Soyuz,1 38041U 11080B   23360.14176740 -.00000062  00000+0  23041-3 0  9991,2 38041  52.0053 250.9448 0000600  46.8136 118.7171 12.62267696554859,12.62267696,6e-05,LEO
38042,GLOBALSTAR M082,2011,114.08,700.0,+,52.0,Active,1,LEO,Kazakhstan,Globalstar,Commercial,Communications,Soyuz,1 38042U 11080C   23359.90354615 -.00000059  00000+0  25186-3 0  9991,2 38042  52.0048 207.0568 0001714  87.9699  15.6373 12.62264868555394,12.62264868,0.0001714,LEO
38043,GLOBALSTAR M092,2011,114.08,700.0,+,52.01,Active,1,LEO,Kazakhstan,Globalstar,Commercial,Communications,Soyuz,1 38043U 11080D   23360.03065801 -.00000093  00000+0  60767-4 0  9997,2 38043  52.0101 297.0189 0000707  23.6406  56.6712 12.62247907554078,12.62247907,7.07e-05,LEO
38044,GLOBALSTAR M090,2011,114.08,700.0,+,51.99,Active,1,LEO,Kazakhstan,Globalstar,Commercial,Communications,Soyuz,1 38044U 11080E   23359.76634316 -.00000072  00000+0  17813-3 0  9999,2 38044  51.9861 201.9775 0001375  83.6680 356.8493 12.62265105555495,12.62265105,0.0001375,LEO
38045,GLOBALSTAR M086,2011,114.08,700.0,+,51.99,Active,1,LEO,Kazakhstan,Globalstar,Commercial,Communications,Soyuz,1 38045U 11080F   23359.96607712 -.00000060  00000+0  24673-3 0  9991,2 38045  51.9873 201.8794 0001031 135.3967  12.2837 12.62266132555464,12.62266132,0.0001031,LEO
39072,GLOBALSTAR M097,2013,114.08,700.0,+,52.0,Active,1,LEO,Kazakhstan,Globalstar,Commercial,Communications,Soyuz,1 39072U 13005A   23359.64309575 -.00000128  00000+0 -13620-3 0  9998,2 39072  52.0041 116.8588 0001112 115.4310 244.6672 12.62273568502675,12.62273568,0.0001112,LEO
39073,GLOBALSTAR M093,2013,114.08,700.0,+,51.98,Active,1,LEO,Kazakhstan,Globalstar,Commercial,Communications,Soyuz,1 39073U 13005B   23359.61650639 -.00000115  00000+0 -62705-4 0  9991,2 39073  51.9810 111.1049 0001238 127.3087 232.7892 12.62278473502627,12.62278473,0.0001238,LEO
